IRIDIUM 921 [-]         
1 24873U 97034E   24073.23292278  .00018924  00000+0  58971-3 0  9994
2 24873  86.3870 335.3875 0000683 231.0104 129.1085 15.33140414460451
IRIDIUM 26 [-]          
1 24903U 97043A   24073.88560903  .00000411  00000+0  13406-3 0  9998
2 24903  86.3938 303.7762 0002108  92.4385 267.7053 14.36238136390657
IRIDIUM 22 [-]          
1 24907U 97043E   24073.93743638  .00000417  00000+0  13920-3 0  9993
2 24907  86.3947 306.9169 0002070  86.1355 274.0078 14.35133795390744
DUMMY MASS 1 [-]        
1 24925U 97048A   24073.51456769  .00000637  00000+0  69531-4 0  9992
2 24925  86.3399 348.1953 0006427   0.3823 359.7405 14.86089934436693
DUMMY MASS 2 [-]        
1 24926U 97048B   24073.73771139  .00000632  00000+0  69414-4 0  9993
2 24926  86.3400 349.6173 0007635   8.1556 351.9791 14.85849315436517
IRIDIUM 29 [-]          
1 24944U 97051A   24073.48244811  .00000503  00000+0  16776-3 0  9990
2 24944  86.4001 337.0367 0002022  79.3569 280.7855 14.35591842387159
IRIDIUM 33 [-]          
1 24946U 97051C   24073.90895260  .00000333  00000+0  11171-3 0  9994
2 24946  86.3914 336.1174 0009327 129.9911 230.2105 14.34283452386754
IRIDIUM 28 [-]          
1 24948U 97051E   24073.47997703  .00000504  00000+0  16500-3 0  9994
2 24948  86.4003 334.8189 0002335  95.8318 264.3145 14.36540544387686
